NORAD_CAT_ID,OBJECT_NAME,OBJECT_TYPE,EPOCH,MEAN_MOTION,ECCENTRICITY,INCLINATION,RA_OF_ASC_NODE,ARG_OF_PERICENTER,MEAN_ANOMALY,BSTAR,MEAN_MOTION_DOT,MEAN_MOTION_DDOT,TLE_LINE0,TLE_LINE1,TLE_LINE2,SEMIMAJOR_AXIS,PERIOD,APOGEE,PERIGEE,DECAYED
56493.0,STARLINK-5841,PAYLOAD,2024-03-22 04:09:44,14.98330159,0.0003136,69.9971,93.3649,268.6579,91.4221,6.5106e-05,6.84e-06,0.0,0 STARLINK-5841,1 56493U 23064AX  24082.17342895  .00000684  00000-0  65106-4 0  9997,2 56493  69.9971  93.3649 0003136 268.6579  91.4221 14.98330159 49612,6950.192,96.107,574.237,569.878,0.0
56493.0,STARLINK-5841,PAYLOAD,2024-03-22 10:34:16,14.98333786,0.0003106,69.9973,92.6915,268.4652,91.6151,0.00010046,1.106e-05,0.0,0 STARLINK-5841,1 56493U 23064AX  24082.44046533  .00001106  00000-0  10046-3 0  9999,2 56493  69.9973  92.6915 0003106 268.4652  91.6151 14.98333786 49296,6950.181,96.107,574.205,569.887,0.0
56493.0,STARLINK-5841,PAYLOAD,2024-03-23 04:11:45,14.98328557,0.0003144,69.9974,90.8394,269.0944,90.9855,-8.3036e-05,-1.084e-05,0.0,0 STARLINK-5841,1 56493U 23064AX  24083.17483366 -.00001084  00000-0 -83036-4 0  9996,2 56493  69.9974  90.8394 0003144 269.0944  90.9855 14.98328557 49766,6950.197,96.107,574.247,569.877,0.0
56493.0,STARLINK-5841,PAYLOAD,2024-03-23 10:36:18,14.9832372,0.0002951,69.9978,90.1667,269.2087,90.8734,2.5808e-06,-6.2e-07,0.0,0 STARLINK-5841,1 56493U 23064AX  24083.44187515 -.00000062  00000-0  25808-5 0  9991,2 56493  69.9978  90.1667 0002951 269.2087  90.8734 14.98323720 49448,6950.212,96.107,574.128,570.026,0.0
56493.0,STARLINK-5841,PAYLOAD,2024-03-24 04:13:45,14.98341198,0.0002736,69.9973,88.314,272.9587,87.1258,-9.0491e-05,-1.173e-05,0.0,0 STARLINK-5841,1 56493U 23064AX  24084.17622610 -.00001173  00000-0 -90491-4 0  9996,2 56493  69.9973  88.3140 0002736 272.9587  87.1258 14.98341198 49916,6950.158,96.106,573.925,570.122,0.0
56493.0,STARLINK-5841,PAYLOAD,2024-03-24 10:38:17,14.98337445,0.0002928,69.9982,87.6399,277.0919,82.9907,0.00010101,1.113e-05,0.0,0 STARLINK-5841,1 56493U 23064AX  24084.44326177  .00001113  00000-0  10101-3 0  9996,2 56493  69.9982  87.6399 0002928 277.0919  82.9907 14.98337445 49590,6950.17,96.107,574.07,570.0,0.0
56493.0,STARLINK-5841,PAYLOAD,2024-03-24 17:02:50,14.98330558,0.0002373,70.0001,86.967,281.7373,78.3519,-1.0227e-05,-2.15e-06,0.0,0 STARLINK-5841,1 56493U 23064AX  24084.71031029 -.00000215  00000-0 -10227-4 0  9999,2 56493  70.0001  86.9670 0002373 281.7373  78.3519 14.98330558 49999,6950.191,96.107,573.705,570.407,0.0
56493.0,STARLINK-5841,PAYLOAD,2024-03-25 17:04:52,14.98324165,0.0002785,69.9989,84.443,268.1088,91.9752,1.531e-05,9e-07,0.0,0 STARLINK-5841,1 56493U 23064AX  24085.71171428  .00000090  00000-0  15310-4 0  9995,2 56493  69.9989  84.4430 0002785 268.1088  91.9752 14.98324165 50143,6950.211,96.107,574.012,570.14,0.0
56493.0,STARLINK-5841,PAYLOAD,2024-03-26 10:42:20,14.9832637,0.0002794,69.9992,82.5915,268.0638,92.0201,-8.3767e-05,-1.092e-05,0.0,0 STARLINK-5841,1 56493U 23064AX  24086.44607621 -.00001092  00000-0 -83767-4 0  9991,2 56493  69.9992  82.5915 0002794 268.0638  92.0201 14.98326370 49895,6950.204,96.107,574.011,570.127,0.0
56493.0,STARLINK-5841,PAYLOAD,2024-03-26 17:06:52,14.98333443,0.000314,70.002,81.9172,270.9387,89.1412,6.1779e-05,6.44e-06,0.0,0 STARLINK-5841,1 56493U 23064AX  24086.71310631  .00000644  00000-0  61779-4 0  9992,2 56493  70.0020  81.9172 0003140 270.9387  89.1412 14.98333443 50293,6950.182,96.107,574.23,569.865,0.0
56493.0,STARLINK-5841,PAYLOAD,2024-03-27 05:55:54,14.98352145,0.0002778,69.9985,80.5697,263.9673,96.117,0.00034957,4.083e-05,0.0,0 STARLINK-5841,1 56493U 23064AX  24087.24716264  .00004083  00000-0  34957-3 0  9991,2 56493  69.9985  80.5697 0002778 263.9673  96.1170 14.98352145 50371,6950.124,96.106,573.92,570.059,0.0
56493.0,STARLINK-5841,PAYLOAD,2024-03-27 09:08:10,14.98353516,0.0002942,69.9989,80.2339,268.4428,91.6394,0.00033931,3.96e-05,0.0,0 STARLINK-5841,1 56493U 23064AX  24087.38068028  .00003960  00000-0  33931-3 0  9998,2 56493  69.9989  80.2339 0002942 268.4428  91.6394 14.98353516 50030,6950.12,96.105,574.03,569.94,0.0
56493.0,STARLINK-5841,PAYLOAD,2024-03-27 17:08:52,14.98339811,0.0002746,69.9989,79.3928,277.6109,82.4738,0.00012764,1.431e-05,0.0,0 STARLINK-5841,1 56493U 23064AX  24087.71449235  .00001431  00000-0  12764-3 0  9990,2 56493  69.9989  79.3928 0002746 277.6109  82.4738 14.98339811 50440,6950.163,96.106,573.936,570.119,0.0
56493.0,STARLINK-5841,PAYLOAD,2024-03-28 05:57:57,14.98320877,0.0003119,69.9986,78.046,273.2507,86.8295,-4.9458e-05,-6.83e-06,0.0,0 STARLINK-5841,1 56493U 23064AX  24088.24858781 -.00000683  00000-0 -49458-4 0  9990,2 56493  69.9986  78.0460 0003119 273.2507  86.8295 14.98320877 50520,6950.221,96.108,574.254,569.918,0.0
56493.0,STARLINK-5841,PAYLOAD,2024-03-28 09:10:14,14.98321738,0.0003109,69.9987,77.7093,273.221,86.8593,-4.2535e-05,-6e-06,0.0,0 STARLINK-5841,1 56493U 23064AX  24088.38210742 -.00000600  00000-0 -42535-4 0  9992,2 56493  69.9987  77.7093 0003109 273.2210  86.8593 14.98321738 50189,6950.218,96.108,574.244,569.923,0.0
56493.0,STARLINK-5841,PAYLOAD,2024-03-28 17:10:54,14.98326266,0.0003269,69.9986,76.8677,272.8005,87.2779,-8.6176e-05,-1.121e-05,0.0,0 STARLINK-5841,1 56493U 23064AX  24088.71590567 -.00001121  00000-0 -86176-4 0  9993,2 56493  69.9986  76.8677 0003269 272.8005  87.2779 14.98326266 50238,6950.204,96.107,574.341,569.797,0.0
56493.0,STARLINK-5841,PAYLOAD,2024-03-29 04:23:52,14.98318028,0.0003184,69.9987,75.6895,272.69,87.3895,-0.00045092,-5.468e-05,0.0,0 STARLINK-5841,1 56493U 23064AX  24089.18324285 -.00005468  00000-0 -45092-3 0  9996,2 56493  69.9987  75.6895 0003184 272.6900  87.3895 14.98318028 50660,6950.23,96.108,574.308,569.882,0.0
56493.0,STARLINK-5841,PAYLOAD,2024-03-29 09:12:16,14.98317488,0.0003003,69.9993,75.1854,269.9788,90.1027,-0.00052519,-6.352e-05,0.0,0 STARLINK-5841,1 56493U 23064AX  24089.38352729 -.00006352  00000-0 -52519-3 0  9997,2 56493  69.9993  75.1854 0003003 269.9788  90.1027 14.98317488 50332,6950.232,96.108,574.184,570.009,0.0
56493.0,STARLINK-5841,PAYLOAD,2024-03-29 22:01:21,14.98309156,0.0003379,69.9985,73.8351,280.9251,79.1528,-8.1555e-05,-1.066e-05,0.0,0 STARLINK-5841,1 56493U 23064AX  24089.91760547 -.00001066  00000-0 -81555-4 0  9997,2 56493  69.9985  73.8351 0003379 280.9251  79.1528 14.98309156 50419,6950.257,96.108,574.471,569.774,0.0
56493.0,STARLINK-5841,PAYLOAD,2024-03-30 04:25:52,14.98313792,0.0003005,69.9995,73.1649,277.6716,82.4101,6.9155e-05,7.32e-06,0.0,0 STARLINK-5841,1 56493U 23064AX  24090.18464115  .00000732  00000-0  69155-4 0  9999,2 56493  69.9995  73.1649 0003005 277.6716  82.4101 14.98313792 50817,6950.243,96.108,574.197,570.019,0.0
56493.0,STARLINK-5841,PAYLOAD,2024-03-30 09:14:17,14.98316089,0.0002884,69.9995,72.6599,275.6484,84.4346,8.3642e-05,9.05e-06,0.0,0 STARLINK-5841,1 56493U 23064AX  24090.38492136  .00000905  00000-0  83642-4 0  9994,2 56493  69.9995  72.6599 0002884 275.6484  84.4346 14.98316089 50487,6950.236,96.108,574.105,570.096,0.0
56493.0,STARLINK-5841,PAYLOAD,2024-03-30 15:38:48,14.98335075,0.0003027,69.9996,71.9855,282.2028,77.8792,-5.5526e-05,-7.56e-06,0.0,0 STARLINK-5841,1 56493U 23064AX  24090.65195437 -.00000756  00000-0 -55526-4 0  9994,2 56493  69.9996  71.9855 0003027 282.2028  77.8792 14.98335075 50884,6950.177,96.107,574.146,569.938,0.0
56493.0,STARLINK-5841,PAYLOAD,2024-03-31 04:27:53,14.98320389,0.0003192,69.9989,70.6404,278.864,81.2157,0.0003179,3.701e-05,0.0,0 STARLINK-5841,1 56493U 23064AX  24091.18603702  .00003701  00000-0  31790-3 0  9999,2 56493  69.9989  70.6404 0003192 278.8640  81.2157 14.98320389 50961,6950.223,96.108,574.306,569.869,0.0
56493.0,STARLINK-5841,PAYLOAD,2024-03-31 07:40:09,14.98321269,0.0002707,70.0,70.3047,270.702,89.3829,0.00033365,3.889e-05,0.0,0 STARLINK-5841,1 56493U 23064AX  24091.31955681  .00003889  00000-0  33365-3 0  9997,2 56493  70.0000  70.3047 0002707 270.7020  89.3829 14.98321269 50628,6950.22,96.108,573.966,570.203,0.0
56493.0,STARLINK-5841,PAYLOAD,2024-03-31 15:40:49,14.98339482,0.0002678,70.0006,69.4617,282.8309,77.2551,2.426e-05,1.97e-06,0.0,0 STARLINK-5841,1 56493U 23064AX  24091.65335400  .00000197  00000-0  24260-4 0  9999,2 56493  70.0006  69.4617 0002678 282.8309  77.2551 14.98339482 51037,6950.164,96.106,573.89,570.167,0.0
56493.0,STARLINK-5841,PAYLOAD,2024-03-31 22:05:22,14.98335441,0.0002995,69.9994,68.7889,277.4787,82.6031,0.00010919,1.21e-05,0.0,0 STARLINK-5841,1 56493U 23064AX  24091.92039428  .00001210  00000-0  10919-3 0  9992,2 56493  69.9994  68.7889 0002995 277.4787  82.6031 14.98335441 50713,6950.176,96.107,574.123,569.959,0.0
56493.0,STARLINK-5841,PAYLOAD,2024-04-01 07:42:10,14.98336337,0.0002942,69.9996,67.7784,277.3381,82.7444,8.6955e-05,9.45e-06,0.0,0 STARLINK-5841,1 56493U 23064AX  24092.32095262  .00000945  00000-0  86955-4 0  9993,2 56493  69.9996  67.7784 0002942 277.3381  82.7444 14.98336337 50779,6950.173,96.107,574.083,569.994,0.0
56493.0,STARLINK-5841,PAYLOAD,2024-04-01 15:42:50,14.98326072,0.0002767,70.0,66.9366,279.4338,80.6508,0.00018877,2.16e-05,0.0,0 STARLINK-5841,1 56493U 23064AX  24092.65475601  .00002160  00000-0  18877-3 0  9996,2 56493  70.0000  66.9366 0002767 279.4338  80.6508 14.98326072 51184,6950.205,96.107,573.993,570.147,0.0
56493.0,STARLINK-5841,PAYLOAD,2024-04-02 04:31:54,14.98337865,0.0003184,69.999,65.5886,276.4173,83.6624,3.4658e-05,3.21e-06,0.0,0 STARLINK-5841,1 56493U 23064AX  24093.18882737  .00000321  00000-0  34658-4 0  9990,2 56493  69.9990  65.5886 0003184 276.4173  83.6624 14.98337865 51262,6950.169,96.106,574.247,569.821,0.0
56493.0,STARLINK-5841,PAYLOAD,2024-04-02 07:44:10,14.98340272,0.0003094,69.9992,65.2521,274.6961,85.3844,1.923e-05,1.36e-06,0.0,0 STARLINK-5841,1 56493U 23064AX  24093.32234530  .00000136  00000-0  19230-4 0  9991,2 56493  69.9992  65.2521 0003094 274.6961  85.3844 14.98340272 50923,6950.161,96.106,574.177,569.876,0.0
